RCM-1                   
1 44322U 19033A   26195.97136253  .00000477  00000+0  51764-4 0  9994
2 44322  97.7603 203.0256 0001520  92.6853 350.7563 14.92586262386223
RCM-3                   
1 44323U 19033B   26195.97845741  .00000050  00000+0  10273-4 0  9991
2 44323  97.7602 203.1270 0001504  91.1429 268.9963 14.92586279386249
RCM-2                   
1 44324U 19033C   26195.93362435  .00000145  00000+0  19490-4 0  9997
2 44324  97.7603 203.0331 0001524  90.8344 269.3050 14.92587082386225
